[{"OBJECT_NAME":"STARLINK-34619","OBJECT_ID":"2025-144P","EPOCH":"2026-03-09T12:48:26.768160","MEAN_MOTION":15.30190696,"ECCENTRICITY":0.00011731,"INCLINATION":53.1576,"RA_OF_ASC_NODE":182.0666,"ARG_OF_PERICENTER":93.497,"MEAN_ANOMALY":266.6165,"EPHEMERIS_TYPE":0,"CLASSIFICATION_TYPE":"U","NORAD_CAT_ID":64737,"ELEMENT_SET_NO":999,"REV_AT_EPOCH":3968,"BSTAR":0.00065144385,"MEAN_MOTION_DOT":0.00018979,"MEAN_MOTION_DDOT":0},{"OBJECT_NAME":"SPACEMOBILE-005 DEB","OBJECT_ID":"2024-163K","EPOCH":"2026-03-09T07:33:15.902496","MEAN_MOTION":15.31481997,"ECCENTRICITY":0.00072885,"INCLINATION":52.9762,"RA_OF_ASC_NODE":31.7924,"ARG_OF_PERICENTER":175.8731,"MEAN_ANOMALY":184.2329,"EPHEMERIS_TYPE":0,"CLASSIFICATION_TYPE":"U","NORAD_CAT_ID":62373,"ELEMENT_SET_NO":999,"REV_AT_EPOCH":8280,"BSTAR":0.00063853778,"MEAN_MOTION_DOT":0.00019381,"MEAN_MOTION_DDOT":0}]
